NORAD_CAT_ID,OBJECT_NAME,OBJECT_TYPE,EPOCH,MEAN_MOTION,ECCENTRICITY,INCLINATION,RA_OF_ASC_NODE,ARG_OF_PERICENTER,MEAN_ANOMALY,BSTAR,MEAN_MOTION_DOT,MEAN_MOTION_DDOT,TLE_LINE0,TLE_LINE1,TLE_LINE2,SEMIMAJOR_AXIS,PERIOD,APOGEE,PERIGEE,DECAYED
51795.0,STARLINK-3586,PAYLOAD,2023-01-15 13:32:47,15.088355800000002,0.000135,53.2161,107.7437,59.3069,300.8056,0.00020267,2.939e-05,0.0,0 STARLINK-3586,1 51795U 22017AD  23015.56444242  .00002939  00000-0  20267-3 0  9994,2 51795  53.2161 107.7437 0001350  59.3069 300.8056 15.08835580 50445,6917.894,95.438,540.693,538.825,0.0
51795.0,STARLINK-3586,PAYLOAD,2023-01-16 11:48:11,15.08846224,0.0001139999999999,53.2156,103.5833,60.3034,299.8071,0.00016245,2.299e-05,0.0,0 STARLINK-3586,1 51795U 22017AD  23016.49180174  .00002299  00000-0  16245-3 0  9998,2 51795  53.2156 103.5833 0001140  60.3034 299.8071 15.08846224 50580,6917.861,95.437,540.515,538.938,0.0
51795.0,STARLINK-3586,PAYLOAD,2023-01-16 13:23:34,15.08860041,0.0001378,53.2151,103.2844,67.0293,293.0845,0.00032754,4.932e-05,0.0,0 STARLINK-3586,1 51795U 22017AD  23016.55803467  .00004932  00000-0  32754-3 0  9991,2 51795  53.2151 103.2844 0001378  67.0293 293.0845 15.08860041 50597,6917.819,95.436,540.637,538.731,0.0
51795.0,STARLINK-3586,PAYLOAD,2023-01-17 05:17:27,15.08814201,0.0001606,53.2142,100.313,76.8501,283.2671,-0.00014592,-2.608e-05,0.0,0 STARLINK-3586,1 51795U 22017AD  23017.22046214 -.00002608  00000-0 -14592-3 0  9995,2 51795  53.2142 100.3130 0001606  76.8501 283.2671 15.08814201 50693,6917.959,95.439,540.935,538.7130000000001,0.0
51795.0,STARLINK-3586,PAYLOAD,2023-01-17 11:39:00,15.08812962,0.0001094,53.2146,99.1241,79.4369,280.6746,-0.00016244,-2.87e-05,0.0,0 STARLINK-3586,1 51795U 22017AD  23017.48542504 -.00002870  00000-0 -16244-3 0  9993,2 51795  53.2146  99.1241 0001094  79.4369 280.6746 15.08812962 50738,6917.963000000001,95.439,540.585,539.071,0.0
51795.0,STARLINK-3586,PAYLOAD,2023-01-18 00:22:05,15.08836823,0.0001306,53.2148,96.7418,95.2584,264.8557,9.8913e-05,1.287e-05,0.0,0 STARLINK-3586,1 51795U 22017AD  23018.01533648  .00001287  00000-0  98913-4 0  9995,2 51795  53.2148  96.7418 0001306  95.2584 264.8557 15.08836823 50815,6917.89,95.438,540.659,538.852,0.0
51795.0,STARLINK-3586,PAYLOAD,2023-01-18 08:19:00,15.08855251,0.0001029,53.2162,95.2559,103.9388,256.1719,0.00037047,5.616e-05,0.0,0 STARLINK-3586,1 51795U 22017AD  23018.34652798  .00005616  00000-0  37047-3 0  9999,2 51795  53.2162  95.2559 0001029 103.9388 256.1719 15.08855251 50867,6917.834,95.437,540.411,538.987,0.0
51795.0,STARLINK-3586,PAYLOAD,2023-01-18 11:29:46,15.08863996,0.0001013,53.2157,94.6616,83.0779,277.0328,0.0007144,0.00011107,0.0,0 STARLINK-3586,1 51795U 22017AD  23018.47900736  .00011107  00000-0  71440-3 0  9998,2 51795  53.2157  94.6616 0001013  83.0779 277.0328 15.08863996 50888,6917.807,95.436,540.373,538.971,0.0
51795.0,STARLINK-3586,PAYLOAD,2023-01-19 04:59:01,15.08839103,0.0001154,53.2145,91.3882,109.6936,250.418,0.00027045,4.019e-05,0.0,0 STARLINK-3586,1 51795U 22017AD  23019.20765471  .00004019  00000-0  27045-3 0  9991,2 51795  53.2145  91.3882 0001154 109.6936 250.4180 15.08839103 50996,6917.883000000001,95.438,540.5459999999999,538.95,0.0
51795.0,STARLINK-3586,PAYLOAD,2023-01-19 11:20:33,15.08851245,8.94e-05,53.2154,90.2007,85.9785,274.131,0.00040256,6.127e-05,0.0,0 STARLINK-3586,1 51795U 22017AD  23019.47260964  .00006127  00000-0  40256-3 0  9998,2 51795  53.2154  90.2007 0000894  85.9785 274.1310 15.08851245 51036,6917.846,95.437,540.3290000000001,539.0930000000001,0.0
51795.0,STARLINK-3586,PAYLOAD,2023-01-20 01:39:01,15.08844382,9.09e-05,53.2155,87.5247,83.4214,276.6881,-6.9704e-05,-1.397e-05,0.0,0 STARLINK-3586,1 51795U 22017AD  23020.06876816 -.00001397  00000-0 -69704-4 0  9990,2 51795  53.2155  87.5247 0000909  83.4214 276.6881 15.08844382 51123,6917.866999999999,95.437,540.361,539.1030000000001,0.0
51795.0,STARLINK-3586,PAYLOAD,2023-01-20 11:11:20,15.08845872,8.73e-05,53.2157,85.7412,64.9874,295.1209,-1.9609e-05,-6e-06,0.0,0 STARLINK-3586,1 51795U 22017AD  23020.46620783 -.00000600  00000-0 -19609-4 0  9999,2 51795  53.2157  85.7412 0000873  64.9874 295.1209 15.08845872 51186,6917.861999999999,95.437,540.331,539.124,0.0
51795.0,STARLINK-3586,PAYLOAD,2023-01-20 20:43:39,15.0883835,0.0001038,53.216,83.9562,66.5788,293.5313,-0.00017484,-3.069e-05,0.0,0 STARLINK-3586,1 51795U 22017AD  23020.86365200 -.00003069  00000-0 -17484-3 0  9993,2 51795  53.2160  83.9562 0001038  66.5788 293.5313 15.08838350 51240,6917.885,95.438,540.469,539.0319999999999,0.0
51795.0,STARLINK-3586,PAYLOAD,2023-01-21 07:51:22,15.08822636,9.26e-05,53.2154,81.8765,68.4072,291.7019,-0.00011436,-2.106e-05,0.0,0 STARLINK-3586,1 51795U 22017AD  23021.32734408 -.00002106  00000-0 -11436-3 0  9997,2 51795  53.2154  81.8765 0000926  68.4072 291.7019 15.08822636 51318,6917.933000000001,95.439,540.439,539.158,0.0
51795.0,STARLINK-3586,PAYLOAD,2023-01-21 12:37:31,15.08835092,9.36e-05,53.2158,80.9849,74.6997,285.4099,0.0001626,2.301e-05,0.0,0 STARLINK-3586,1 51795U 22017AD  23021.52606162  .00002301  00000-0  16260-3 0  9999,2 51795  53.2158  80.9849 0000936  74.6997 285.4099 15.08835092 51342,6917.895,95.438,540.408,539.113,0.0
51795.0,STARLINK-3586,PAYLOAD,2023-01-22 04:31:22,15.08865115,9.17e-05,53.2152,78.0095,73.0083,287.1009,0.0012172,0.0001915,0.0,0 STARLINK-3586,1 51795U 22017AD  23022.18845757  .00019150  00000-0  12172-2 0  9994,2 51795  53.2152  78.0095 0000917  73.0083 287.1009 15.08865115 51445,6917.804,95.436,540.303,539.034,0.0
51795.0,STARLINK-3586,PAYLOAD,2023-01-22 10:52:54,15.08889287,9.46e-05,53.215,76.82,73.1001,287.0095,0.0020339,0.00032274,0.0,0 STARLINK-3586,1 51795U 22017AD  23022.45341116  .00032274  00000-0  20339-2 0  9990,2 51795  53.2150  76.8200 0000946  73.1001 287.0095 15.08889287 51484,6917.73,95.434,540.249,538.94,0.0
51795.0,STARLINK-3586,PAYLOAD,2023-01-23 05:57:32,15.08839878,9.09e-05,53.2145,73.2517,105.0993,255.01,0.00097765,0.00015306,0.0,0 STARLINK-3586,1 51795U 22017AD  23023.24829126  .00015306  00000-0  97765-3 0  9995,2 51795  53.2145  73.2517 0000909 105.0993 255.0100 15.08839878 51601,6917.880999999999,95.438,540.375,539.117,0.0
51795.0,STARLINK-3586,PAYLOAD,2023-01-24 10:34:29,15.08849752,9.83e-05,53.2145,67.8985,105.4767,254.6334,0.0015557,0.00024564,0.0,0 STARLINK-3586,1 51795U 22017AD  23024.44061864  .00024564  00000-0  15557-2 0  9999,2 51795  53.2145  67.8985 0000983 105.4767 254.6334 15.08849752 51789,6917.851,95.437,540.396,539.036,0.0
51795.0,STARLINK-3586,PAYLOAD,2023-01-25 02:28:21,15.08840015,0.0001193,53.2155,64.9252,97.363,262.7498,0.001365,0.00021503,0.0,0 STARLINK-3586,1 51795U 22017AD  23025.10302475  .00021503  00000-0  13650-2 0  9991,2 51795  53.2155  64.9252 0001193  97.3630 262.7498 15.08840015 51882,6917.88,95.438,540.571,538.92,0.0
51795.0,STARLINK-3586,PAYLOAD,2023-01-25 08:49:53,15.08840953,0.0001176,53.2147,63.7352,86.6878,273.4249,0.00082068,0.00012798,0.0,0 STARLINK-3586,1 51795U 22017AD  23025.36798522  .00012798  00000-0  82068-3 0  9997,2 51795  53.2147  63.7352 0001176  86.6878 273.4249 15.08840953 51926,6917.877,95.437,540.556,538.929,0.0
51795.0,STARLINK-3586,PAYLOAD,2023-01-25 19:57:35,15.08850488,0.0001222,53.2148,61.6529,87.8158,272.2974,0.00076196,0.00011863,0.0,0 STARLINK-3586,1 51795U 22017AD  23025.83166324  .00011863  00000-0  76196-3 0  9995,2 51795  53.2148  61.6529 0001222  87.8158 272.2974 15.08850488 51999,6917.848000000001,95.437,540.559,538.868,0.0
51795.0,STARLINK-3586,PAYLOAD,2023-01-26 10:16:03,15.08861181,0.0001471,53.2156,58.9753,97.5919,262.524,0.00068938,0.00010707,0.0,0 STARLINK-3586,1 51795U 22017AD  23026.42781762  .00010707  00000-0  68938-3 0  9991,2 51795  53.2156  58.9753 0001471  97.5919 262.5240 15.08861181 52086,6917.816,95.436,540.698,538.663,0.0
51795.0,STARLINK-3586,PAYLOAD,2023-01-27 05:20:41,15.08844166,0.0001581,53.2161,55.4057,101.6004,258.5165,5.7213e-05,6.23e-06,0.0,0 STARLINK-3586,1 51795U 22017AD  23027.22269870  .00000623  00000-0  57213-4 0  9992,2 51795  53.2161  55.4057 0001581 101.6004 258.5165 15.08844166 52204,6917.868,95.437,540.826,538.639,0.0
51795.0,STARLINK-3586,PAYLOAD,2023-01-27 08:31:27,15.08844007,0.0001440999999999,53.2167,54.8113,101.5653,258.5501,6.665600000000001e-05,7.73e-06,0.0,0 STARLINK-3586,1 51795U 22017AD  23027.35517908  .00000773  00000-0  66656-4 0  9991,2 51795  53.2167  54.8113 0001441 101.5653 258.5501 15.08844007 52220,6917.868,95.437,540.73,538.736,0.0
51795.0,STARLINK-3586,PAYLOAD,2023-01-28 05:11:28,15.08839787,0.0001541,53.2168,50.9444,109.2222,250.8936,3.1301e-06,-2.38e-06,0.0,0 STARLINK-3586,1 51795U 22017AD  23028.21630044 -.00000238  00000-0  31301-5 0  9991,2 51795  53.2168  50.9444 0001541 109.2222 250.8936 15.08839787 52353,6917.880999999999,95.438,540.812,538.68,0.0
51795.0,STARLINK-3586,PAYLOAD,2023-01-28 08:22:14,15.08845862,0.0001423,53.2164,50.3522,105.1596,254.9553,5.0295e-06,-2.08e-06,0.0,0 STARLINK-3586,1 51795U 22017AD  23028.34877825 -.00000208  00000-0  50295-5 0  9995,2 51795  53.2164  50.3522 0001423 105.1596 254.9553 15.08845862 52371,6917.862,95.437,540.712,538.743,0.0
51795.0,STARLINK-3586,PAYLOAD,2023-01-28 17:54:33,15.08843914,0.0001358,53.2164,48.5681,98.3193,261.7953,-2.4846e-05,-6.83e-06,0.0,0 STARLINK-3586,1 51795U 22017AD  23028.74621861 -.00000683  00000-0 -24846-4 0  9996,2 51795  53.2164  48.5681 0001358  98.3193 261.7953 15.08843914 52432,6917.868,95.437,540.673,538.794,0.0
51795.0,STARLINK-3586,PAYLOAD,2023-01-29 11:23:47,15.08848468,0.0001465,53.2161,45.2969,98.76,261.3558,0.00016262,2.302e-05,0.0,0 STARLINK-3586,1 51795U 22017AD  23029.47485693  .00002302  00000-0  16262-3 0  9998,2 51795  53.2161  45.2969 0001465  98.7600 261.3558 15.08848468 52546,6917.855,95.437,540.733,538.706,0.0
